{
  "type": "FeatureCollection",
  "features": [
    {
      "type": "Feature",
      "properties": {
        "norad_id": 66968,
        "name": "STARLINK-36152",
        "group": "last-30-days",
        "lat": -32.432219121184126,
        "lon": 37.58434673448095,
        "alt_km": 395.32965137419797,
        "timestamp": "2025-12-26T23:26:40.923145+00:00",
        "meta_object_name": "STARLINK-36152",
        "meta_object_id": "2025-288K",
        "meta_epoch": "2025-12-26T18:00:02.998944",
        "meta_mean_motion": 15.59035207,
        "meta_eccentricity": 0.0001226,
        "meta_inclination": 42.9999,
        "meta_ra_of_asc_node": 81.9185,
        "meta_arg_of_pericenter": 290.7326,
        "meta_mean_anomaly": 183.239,
        "meta_ephemeris_type": 0,
        "meta_classification_type": "U",
        "meta_norad_cat_id": 66968,
        "meta_element_set_no": 999,
        "meta_rev_at_epoch": 408,
        "meta_bstar": -0.028183,
        "meta_mean_motion_dot": -0.01982297,
        "meta_mean_motion_ddot": 0,
        "tle_line1": "1 66968U 25288K   25360.75003471 -.01982297  00000+0 -28183-1 0  9995",
        "tle_line2": "2 66968  42.9999  81.9185 0001226 290.7326 183.2390 15.59035207  4086"
      },
      "geometry": {
        "type": "Point",
        "coordinates": [
          37.58434673448095,
          -32.432219121184126
        ]
      }
    },
    {
      "type": "Feature",
      "properties": {
        "norad_id": 66969,
        "name": "STARLINK-36149",
        "group": "last-30-days",
        "lat": -27.308899634006806,
        "lon": 46.90269970850821,
        "alt_km": 395.04242571211853,
        "timestamp": "2025-12-26T23:26:40.923154+00:00",
        "meta_object_name": "STARLINK-36149",
        "meta_object_id": "2025-288L",
        "meta_epoch": "2025-12-26T18:00:02.998944",
        "meta_mean_motion": 15.59036398,
        "meta_eccentricity": 0.0001283,
        "meta_inclination": 43,
        "meta_ra_of_asc_node": 81.8945,
        "meta_arg_of_pericenter": 288.8892,
        "meta_mean_anomaly": 194.6682,
        "meta_ephemeris_type": 0,
        "meta_classification_type": "U",
        "meta_norad_cat_id": 66969,
        "meta_element_set_no": 999,
        "meta_rev_at_epoch": 408,
        "meta_bstar": -0.028227,
        "meta_mean_motion_dot": -0.01985131,
        "meta_mean_motion_ddot": 0,
        "tle_line1": "1 66969U 25288L   25360.75003471 -.01985131  00000+0 -28227-1 0  9995",
        "tle_line2": "2 66969  43.0000  81.8945 0001283 288.8892 194.6682 15.59036398  4086"
      },
      "geometry": {
        "type": "Point",
        "coordinates": [
          46.90269970850821,
          -27.308899634006806
        ]
      }
    },
    {
      "type": "Feature",
      "properties": {
        "norad_id": 66970,
        "name": "STARLINK-35703",
        "group": "last-30-days",
        "lat": -22.79732221244155,
        "lon": 53.72126295069355,
        "alt_km": 394.7420066989107,
        "timestamp": "2025-12-26T23:26:40.923164+00:00",
        "meta_object_name": "STARLINK-35703",
        "meta_object_id": "2025-288M",
        "meta_epoch": "2025-12-26T18:00:02.998944",
        "meta_mean_motion": 15.5902905,
        "meta_eccentricity": 0.0001301,
        "meta_inclination": 43.0004,
        "meta_ra_of_asc_node": 81.8748,
        "meta_arg_of_pericenter": 290.9308,
        "meta_mean_anomaly": 200.2959,
        "meta_ephemeris_type": 0,
        "meta_classification_type": "U",
        "meta_norad_cat_id": 66970,
        "meta_element_set_no": 999,
        "meta_rev_at_epoch": 408,
        "meta_bstar": -0.028014,
        "meta_mean_motion_dot": -0.01971479,
        "meta_mean_motion_ddot": 0,
        "tle_line1": "1 66970U 25288M   25360.75003471 -.01971479  00000+0 -28014-1 0  9991",
        "tle_line2": "2 66970  43.0004  81.8748 0001301 290.9308 200.2959 15.59029050  4088"
      },
      "geometry": {
        "type": "Point",
        "coordinates": [
          53.72126295069355,
          -22.79732221244155
        ]
      }
    },
    {
      "type": "Feature",
      "properties": {
        "norad_id": 66971,
        "name": "STARLINK-35678",
        "group": "last-30-days",
        "lat": -31.461896920905296,
        "lon": 39.52743567697783,
        "alt_km": 395.23680548395623,
        "timestamp": "2025-12-26T23:26:40.923175+00:00",
        "meta_object_name": "STARLINK-35678",
        "meta_object_id": "2025-288N",
        "meta_epoch": "2025-12-26T18:00:02.998944",
        "meta_mean_motion": 15.59032126,
        "meta_eccentricity": 0.0001307,
        "meta_inclination": 43,
        "meta_ra_of_asc_node": 81.9146,
        "meta_arg_of_pericenter": 289.6058,
        "meta_mean_anomaly": 186.2844,
        "meta_ephemeris_type": 0,
        "meta_classification_type": "U",
        "meta_norad_cat_id": 66971,
        "meta_element_set_no": 999,
        "meta_rev_at_epoch": 408,
        "meta_bstar": -0.028118,
        "meta_mean_motion_dot": -0.01978143,
        "meta_mean_motion_ddot": 0,
        "tle_line1": "1 66971U 25288N   25360.75003471 -.01978143  00000+0 -28118-1 0  9992",
        "tle_line2": "2 66971  43.0000  81.9146 0001307 289.6058 186.2844 15.59032126  4085"
      },
      "geometry": {
        "type": "Point",
        "coordinates": [
          39.52743567697783,
          -31.461896920905296
        ]
      }
    },
    {
      "type": "Feature",
      "properties": {
        "norad_id": 66972,
        "name": "STARLINK-34846",
        "group": "last-30-days",
        "lat": -30.46293777988716,
        "lon": 41.428207837507074,
        "alt_km": 395.1085013862439,
        "timestamp": "2025-12-26T23:26:40.923183+00:00",
        "meta_object_name": "STARLINK-34846",
        "meta_object_id": "2025-288P",
        "meta_epoch": "2025-12-26T18:00:02.998944",
        "meta_mean_motion": 15.59033278,
        "meta_eccentricity": 0.0001419,
        "meta_inclination": 42.9998,
        "meta_ra_of_asc_node": 81.9098,
        "meta_arg_of_pericenter": 290.049,
        "meta_mean_anomaly": 187.7571,
        "meta_ephemeris_type": 0,
        "meta_classification_type": "U",
        "meta_norad_cat_id": 66972,
        "meta_element_set_no": 999,
        "meta_rev_at_epoch": 408,
        "meta_bstar": -0.028139,
        "meta_mean_motion_dot": -0.01979585,
        "meta_mean_motion_ddot": 0,
        "tle_line1": "1 66972U 25288P   25360.75003471 -.01979585  00000+0 -28139-1 0  9997",
        "tle_line2": "2 66972  42.9998  81.9098 0001419 290.0490 187.7571 15.59033278  4088"
      },
      "geometry": {
        "type": "Point",
        "coordinates": [
          41.428207837507074,
          -30.46293777988716
        ]
      }
    },
    {
      "type": "Feature",
      "properties": {
        "norad_id": 66973,
        "name": "STARLINK-35778",
        "group": "last-30-days",
        "lat": -29.437846786365736,
        "lon": 43.28870380153303,
        "alt_km": 395.1384372818575,
        "timestamp": "2025-12-26T23:26:40.923192+00:00",
        "meta_object_name": "STARLINK-35778",
        "meta_object_id": "2025-288Q",
        "meta_epoch": "2025-12-26T18:00:02.998944",
        "meta_mean_motion": 15.59030926,
        "meta_eccentricity": 0.0001269,
        "meta_inclination": 43.0001,
        "meta_ra_of_asc_node": 81.9049,
        "meta_arg_of_pericenter": 292.2426,
        "meta_mean_anomaly": 187.4811,
        "meta_ephemeris_type": 0,
        "meta_classification_type": "U",
        "meta_norad_cat_id": 66973,
        "meta_element_set_no": 999,
        "meta_rev_at_epoch": 408,
        "meta_bstar": -0.028069,
        "meta_mean_motion_dot": -0.0197502,
        "meta_mean_motion_ddot": 0,
        "tle_line1": "1 66973U 25288Q   25360.75003471 -.01975020  00000+0 -28069-1 0  9990",
        "tle_line2": "2 66973  43.0001  81.9049 0001269 292.2426 187.4811 15.59030926  4089"
      },
      "geometry": {
        "type": "Point",
        "coordinates": [
          43.28870380153303,
          -29.437846786365736
        ]
      }
    },
    {
      "type": "Feature",
      "properties": {
        "norad_id": 66974,
        "name": "STARLINK-35780",
        "group": "last-30-days",
        "lat": -28.386250793175634,
        "lon": 45.112901134159024,
        "alt_km": 395.11755908289433,
        "timestamp": "2025-12-26T23:26:40.923201+00:00",
        "meta_object_name": "STARLINK-35780",
        "meta_object_id": "2025-288R",
        "meta_epoch": "2025-12-26T18:00:02.998944",
        "meta_mean_motion": 15.59033246,
        "meta_eccentricity": 0.0001216,
        "meta_inclination": 43,
        "meta_ra_of_asc_node": 81.9003,
        "meta_arg_of_pericenter": 292.062,
        "meta_mean_anomaly": 189.5777,
        "meta_ephemeris_type": 0,
        "meta_classification_type": "U",
        "meta_norad_cat_id": 66974,
        "meta_element_set_no": 999,
        "meta_rev_at_epoch": 408,
        "meta_bstar": -0.028132,
        "meta_mean_motion_dot": -0.01978977,
        "meta_mean_motion_ddot": 0,
        "tle_line1": "1 66974U 25288R   25360.75003471 -.01978977  00000+0 -28132-1 0  9996",
        "tle_line2": "2 66974  43.0000  81.9003 0001216 292.0620 189.5777 15.59033246  4087"
      },
      "geometry": {
        "type": "Point",
        "coordinates": [
          45.112901134159024,
          -28.386250793175634
        ]
      }
    }
  ]
}